start=new Date('2021-08-31T00:00:00.000Z').valueOf();
sats=[{"MEAN_MOTION_DOT":"0.00041847","APOAPSIS":"548.095","MEAN_ANOMALY":"171.9687","REV_AT_EPOCH":"359","GP_ID":"183732185","TLE_LINE2":"2 48289  53.0532 298.2074 0001048  71.9686 171.9687 15.06349323  3595","COUNTRY_CODE":"US","DECAY_DATE":null,"PERIAPSIS":"546.643","RA_OF_ASC_NODE":"298.2074","SEMIMAJOR_AXIS":"6925.504","INCLINATION":"53.0532","MEAN_MOTION_DDOT":"0.0000000000000","RCS_SIZE":"LARGE","EPHEMERIS_TYPE":"0","TIME_SYSTEM":"UTC","BSTAR":"0.00281550000000","PERIOD":"95.595","MEAN_MOTION":"15.06349323","ARG_OF_PERICENTER":"71.9686","OBJECT_NAME":"STARLINK-2545","NORAD_CAT_ID":"48289","ECCENTRICITY":"0.00010480","FILE":"3105635","LAUNCH_DATE":"2021-04-29","MEAN_ELEMENT_THEORY":"SGP4","ELEMENT_SET_NO":"999","OBJECT_TYPE":"PAYLOAD","REF_FRAME":"TEME","CLASSIFICATION_TYPE":"U","EPOCH":"2021-08-30T14:00:01.000224","SITE":"AFETR","TLE_LINE1":"1 48289U 21036P   21242.58334491  .00041847  00000-0  28155-2 0  9998","CENTER_NAME":"EARTH","OBJECT_ID":"2021-036P"},{"CLASSIFICATION_TYPE":"U","OBJECT_TYPE":"PAYLOAD","REF_FRAME":"TEME","EPOCH":"2021-08-30T14:00:01.000224","CENTER_NAME":"EARTH","SITE":"AFETR","TLE_LINE1":"1 48290U 21036Q   21242.58334491  .00040424  00000-0  27206-2 0  9996","OBJECT_ID":"2021-036Q","BSTAR":"0.00272060000000","OBJECT_NAME":"STARLINK-2540","PERIOD":"95.595","MEAN_MOTION":"15.06354030","ARG_OF_PERICENTER":"80.7316","NORAD_CAT_ID":"48290","ECCENTRICITY":"0.00012780","ELEMENT_SET_NO":"999","FILE":"3105635","LAUNCH_DATE":"2021-04-29","MEAN_ELEMENT_THEORY":"SGP4","DECAY_DATE":null,"RA_OF_ASC_NODE":"298.2247","PERIAPSIS":"546.469","SEMIMAJOR_AXIS":"6925.489","INCLINATION":"53.0537","RCS_SIZE":"LARGE","MEAN_MOTION_DDOT":"0.0000000000000","EPHEMERIS_TYPE":"0","TIME_SYSTEM":"UTC","MEAN_MOTION_DOT":"0.00040424","APOAPSIS":"548.240","MEAN_ANOMALY":"183.2079","REV_AT_EPOCH":"359","GP_ID":"183732931","TLE_LINE2":"2 48290  53.0537 298.2247 0001278  80.7316 183.2079 15.06354030  3599","COUNTRY_CODE":"US"},{"REV_AT_EPOCH":"359","GP_ID":"183731184","APOAPSIS":"548.097","MEAN_MOTION_DOT":"0.00039455","MEAN_ANOMALY":"215.0080","COUNTRY_CODE":"US","TLE_LINE2":"2 48291  53.0540 298.2141 0001110  68.9268 215.0080 15.06362520  3595","SEMIMAJOR_AXIS":"6925.463","INCLINATION":"53.0540","DECAY_DATE":null,"PERIAPSIS":"546.560","RA_OF_ASC_NODE":"298.2141","TIME_SYSTEM":"UTC","MEAN_MOTION_DDOT":"0.0000000000000","RCS_SIZE":"LARGE","EPHEMERIS_TYPE":"0","BSTAR":"0.00265560000000","ECCENTRICITY":"0.00011100","MEAN_ELEMENT_THEORY":"SGP4","FILE":"3105635","LAUNCH_DATE":"2021-04-29","ELEMENT_SET_NO":"999","ARG_OF_PERICENTER":"68.9268","PERIOD":"95.595","MEAN_MOTION":"15.06362520","OBJECT_NAME":"STARLINK-2555","NORAD_CAT_ID":"48291","EPOCH":"2021-08-30T14:00:01.000224","SITE":"AFETR","TLE_LINE1":"1 48291U 21036R   21242.58334491  .00039455  00000-0  26556-2 0  9996","CENTER_NAME":"EARTH","OBJECT_TYPE":"PAYLOAD","CLASSIFICATION_TYPE":"U","REF_FRAME":"TEME","OBJECT_ID":"2021-036R"},{"OBJECT_ID":"2021-036S","EPOCH":"2021-08-30T14:00:01.000224","CENTER_NAME":"EARTH","TLE_LINE1":"1 48292U 21036S   21242.58334491  .00039037  00000-0  26277-2 0  9993","SITE":"AFETR","OBJECT_TYPE":"PAYLOAD","CLASSIFICATION_TYPE":"U","REF_FRAME":"TEME","ECCENTRICITY":"0.00007240","ELEMENT_SET_NO":"999","LAUNCH_DATE":"2021-04-29","FILE":"3105635","MEAN_ELEMENT_THEORY":"SGP4","OBJECT_NAME":"STARLINK-2542","MEAN_MOTION":"15.06363911","PERIOD":"95.594","ARG_OF_PERICENTER":"94.1815","NORAD_CAT_ID":"48292","BSTAR":"0.00262770000000","TIME_SYSTEM":"UTC","RCS_SIZE":"LARGE","MEAN_MOTION_DDOT":"0.0000000000000","EPHEMERIS_TYPE":"0","SEMIMAJOR_AXIS":"6925.459","INCLINATION":"53.0543","DECAY_DATE":null,"RA_OF_ASC_NODE":"298.2092","PERIAPSIS":"546.823","COUNTRY_CODE":"US","TLE_LINE2":"2 48292  53.0543 298.2092 0000724  94.1815 214.8922 15.06363911  3590","REV_AT_EPOCH":"359","GP_ID":"183731935","MEAN_MOTION_DOT":"0.00039037","APOAPSIS":"547.826","MEAN_ANOMALY":"214.8922"},{"MEAN_ANOMALY":"257.0515","APOAPSIS":"547.977","MEAN_MOTION_DOT":"0.00038444","GP_ID":"183732685","REV_AT_EPOCH":"359","TLE_LINE2":"2 48293  53.0543 298.2074 0000956  66.9013 257.0515 15.06366886  3596","COUNTRY_CODE":"US","PERIAPSIS":"546.653","RA_OF_ASC_NODE":"298.2074","DECAY_DATE":null,"INCLINATION":"53.0543","SEMIMAJOR_AXIS":"6925.450","EPHEMERIS_TYPE":"0","MEAN_MOTION_DDOT":"0.0000000000000","RCS_SIZE":"LARGE","TIME_SYSTEM":"UTC","BSTAR":"0.00258810000000","NORAD_CAT_ID":"48293","PERIOD":"95.594","MEAN_MOTION":"15.06366886","ARG_OF_PERICENTER":"66.9013","OBJECT_NAME":"STARLINK-2550","FILE":"3105635","MEAN_ELEMENT_THEORY":"SGP4","LAUNCH_DATE":"2021-04-29","ELEMENT_SET_NO":"999","ECCENTRICITY":"0.00009560","OBJECT_TYPE":"PAYLOAD","REF_FRAME":"TEME","CLASSIFICATION_TYPE":"U","SITE":"AFETR","TLE_LINE1":"1 48293U 21036T   21242.58334491  .00038444  00000-0  25881-2 0  9995","CENTER_NAME":"EARTH","EPOCH":"2021-08-30T14:00:01.000224","OBJECT_ID":"2021-036T"},{"OBJECT_ID":"2021-036U","OBJECT_TYPE":"PAYLOAD","CLASSIFICATION_TYPE":"U","REF_FRAME":"TEME","TLE_LINE1":"1 48294U 21036U   21242.58334491  .00039277  00000-0  26443-2 0  9996","SITE":"AFETR","CENTER_NAME":"EARTH","EPOCH":"2021-08-30T14:00:01.000224","NORAD_CAT_ID":"48294","MEAN_MOTION":"15.06354728","PERIOD":"95.595","ARG_OF_PERICENTER":"75.5854","OBJECT_NAME":"STARLINK-2533","MEAN_ELEMENT_THEORY":"SGP4","FILE":"3105635","LAUNCH_DATE":"2021-04-29","ELEMENT_SET_NO":"999","ECCENTRICITY":"0.00012270","BSTAR":"0.00264430000000","EPHEMERIS_TYPE":"0","MEAN_MOTION_DDOT":"0.0000000000000","RCS_SIZE":"LARGE","TIME_SYSTEM":"UTC","PERIAPSIS":"546.503","RA_OF_ASC_NODE":"298.2100","DECAY_DATE":null,"INCLINATION":"53.0566","SEMIMAJOR_AXIS":"6925.487","TLE_LINE2":"2 48294  53.0566 298.2100 0001227  75.5854 268.3509 15.06354728  3593","COUNTRY_CODE":"US","MEAN_ANOMALY":"268.3509","APOAPSIS":"548.202","MEAN_MOTION_DOT":"0.00039277","GP_ID":"183732432","REV_AT_EPOCH":"359"},{"TLE_LINE2":"2 48295  53.0568 296.7132 0001001  83.6271 289.0013 15.06366997 19933","COUNTRY_CODE":"US","MEAN_ANOMALY":"289.0013","APOAPSIS":"548.008","MEAN_MOTION_DOT":"0.00002278","GP_ID":"183734307","REV_AT_EPOCH":"1993","EPHEMERIS_TYPE":"0","RCS_SIZE":"LARGE","MEAN_MOTION_DDOT":"0.0000000000000","TIME_SYSTEM":"UTC","RA_OF_ASC_NODE":"296.7132","PERIAPSIS":"546.621","DECAY_DATE":null,"INCLINATION":"53.0568","SEMIMAJOR_AXIS":"6925.450","NORAD_CAT_ID":"48295","OBJECT_NAME":"STARLINK-2535","ARG_OF_PERICENTER":"83.6271","PERIOD":"95.594","MEAN_MOTION":"15.06366997","ELEMENT_SET_NO":"999","FILE":"3105681","MEAN_ELEMENT_THEORY":"SGP4","LAUNCH_DATE":"2021-04-29","ECCENTRICITY":"0.00010010","BSTAR":"0.00017190000000","OBJECT_ID":"2021-036V","CLASSIFICATION_TYPE":"U","OBJECT_TYPE":"PAYLOAD","REF_FRAME":"TEME","CENTER_NAME":"EARTH","SITE":"AFETR","TLE_LINE1":"1 48295U 21036V   21242.91668981  .00002278  00000-0  17190-3 0  9999","EPOCH":"2021-08-30T22:00:01.999584"},{"GP_ID":"183707823","REV_AT_EPOCH":"1988","MEAN_ANOMALY":"312.1141","APOAPSIS":"548.209","MEAN_MOTION_DOT":"0.00040226","COUNTRY_CODE":"US","TLE_LINE2":"2 48296  53.0558 298.2124 0001205  71.8185 312.1141 15.06347442 19888","INCLINATION":"53.0558","SEMIMAJOR_AXIS":"6925.510","PERIAPSIS":"546.540","RA_OF_ASC_NODE":"298.2124","DECAY_DATE":null,"TIME_SYSTEM":"UTC","EPHEMERIS_TYPE":"0","MEAN_MOTION_DDOT":"0.0000000000000","RCS_SIZE":"LARGE","BSTAR":"0.00270790000000","FILE":"3105526","MEAN_ELEMENT_THEORY":"SGP4","LAUNCH_DATE":"2021-04-29","ELEMENT_SET_NO":"999","ECCENTRICITY":"0.00012050","NORAD_CAT_ID":"48296","PERIOD":"95.595","ARG_OF_PERICENTER":"71.8185","MEAN_MOTION":"15.06347442","OBJECT_NAME":"STARLINK-2546","SITE":"AFETR","TLE_LINE1":"1 48296U 21036W   21242.58334491  .00040226  00000-0  27079-2 0  9990","CENTER_NAME":"EARTH","EPOCH":"2021-08-30T14:00:01.000224","REF_FRAME":"TEME","OBJECT_TYPE":"PAYLOAD","CLASSIFICATION_TYPE":"U","OBJECT_ID":"2021-036W"},{"REF_FRAME":"TEME","OBJECT_TYPE":"PAYLOAD","CLASSIFICATION_TYPE":"U","TLE_LINE1":"1 48297U 21036X   21242.91668981  .00002586  00000-0  19256-3 0  9998","SITE":"AFETR","CENTER_NAME":"EARTH","EPOCH":"2021-08-30T22:00:01.999584","OBJECT_ID":"2021-036X","BSTAR":"0.00019256000000","NORAD_CAT_ID":"48297","PERIOD":"95.594","MEAN_MOTION":"15.06377829","ARG_OF_PERICENTER":"88.5644","OBJECT_NAME":"STARLINK-2544","MEAN_ELEMENT_THEORY":"SGP4","FILE":"3105691","LAUNCH_DATE":"2021-04-29","ELEMENT_SET_NO":"999","ECCENTRICITY":"0.00010580","PERIAPSIS":"546.549","RA_OF_ASC_NODE":"296.7147","DECAY_DATE":null,"INCLINATION":"53.0560","SEMIMAJOR_AXIS":"6925.417","EPHEMERIS_TYPE":"0","MEAN_MOTION_DDOT":"0.0000000000000","RCS_SIZE":"LARGE","TIME_SYSTEM":"UTC","MEAN_ANOMALY":"324.1046","APOAPSIS":"548.014","MEAN_MOTION_DOT":"0.00002586","GP_ID":"183734445","REV_AT_EPOCH":"1993","TLE_LINE2":"2 48297  53.0560 296.7147 0001058  88.5644 324.1046 15.06377829 19936","COUNTRY_CODE":"US"},{"OBJECT_ID":"2021-036Y","CLASSIFICATION_TYPE":"U","OBJECT_TYPE":"PAYLOAD","REF_FRAME":"TEME","EPOCH":"2021-08-30T14:00:01.000224","CENTER_NAME":"EARTH","SITE":"AFETR","TLE_LINE1":"1 48298U 21036Y   21242.58334491  .00043222  00000-0  29064-2 0  9997","OBJECT_NAME":"STARLINK-2559","MEAN_MOTION":"15.06354107","PERIOD":"95.595","ARG_OF_PERICENTER":"76.0929","NORAD_CAT_ID":"48298","ECCENTRICITY":"0.00011120","ELEMENT_SET_NO":"999","FILE":"3105528","MEAN_ELEMENT_THEORY":"SGP4","LAUNCH_DATE":"2021-04-29","BSTAR":"0.00290640000000","RCS_SIZE":"LARGE","MEAN_MOTION_DDOT":"0.0000000000000","EPHEMERIS_TYPE":"0","TIME_SYSTEM":"UTC","DECAY_DATE":null,"RA_OF_ASC_NODE":"298.2122","PERIAPSIS":"546.584","SEMIMAJOR_AXIS":"6925.489","INCLINATION":"53.0557","TLE_LINE2":"2 48298  53.0557 298.2122 0001112  76.0929 347.8520 15.06354107 19889","COUNTRY_CODE":"US","MEAN_MOTION_DOT":"0.00043222","APOAPSIS":"548.124","MEAN_ANOMALY":"347.8520","REV_AT_EPOCH":"1988","GP_ID":"183707519"}];
